[
    {
        "Altitude(m)": 568688.9610258213,
        "Argument of Periapsis(deg)": 0.019868973332140504,
        "Eccentricity": 0.0,
        "Inclination(deg)": 53.0,
        "Latitude(deg)": -45.257542220275994,
        "Longitude(deg)": 3.4890292963719793,
        "Mean Anomaly(deg)": -62.45242139726719,
        "RAAN(deg)": 154.97043010558406,
        "Satellite Name": "Starlink Shell 1 698",
        "Satellite Number": 698,
        "Semi-Major Axis(m)": 6931778.249405717,
        "Time(s)": 570
    },
    {
        "Altitude(m)": 568553.6340317059,
        "Argument of Periapsis(deg)": 0.02021755181165174,
        "Eccentricity": 0.0,
        "Inclination(deg)": 53.0,
        "Latitude(deg)": -44.927926886432246,
        "Longitude(deg)": 4.198557662589826,
        "Mean Anomaly(deg)": -61.825590193710504,
        "RAAN(deg)": 154.96991133550657,
        "Satellite Name": "Starlink Shell 1 698",
        "Satellite Number": 698,
        "Semi-Major Axis(m)": 6931778.249405717,
        "Time(s)": 580
    },
    {
        "Altitude(m)": 568416.1309247852,
        "Argument of Periapsis(deg)": 0.020566130291162974,
        "Eccentricity": 0.0,
        "Inclination(deg)": 53.0,
        "Latitude(deg)": -44.59340750629251,
        "Longitude(deg)": 4.8995051605279425,
        "Mean Anomaly(deg)": -61.198758990153806,
        "RAAN(deg)": 154.9693925654291,
        "Satellite Name": "Starlink Shell 1 698",
        "Satellite Number": 698,
        "Semi-Major Axis(m)": 6931778.249405717,
        "Time(s)": 590
    },
    {
        "Altitude(m)": 568276.5058434895,
        "Argument of Periapsis(deg)": 0.020914708770674213,
        "Eccentricity": 0.0,
        "Inclination(deg)": 53.0,
        "Latitude(deg)": -44.25409455484019,
        "Longitude(deg)": 5.591946491605244,
        "Mean Anomaly(deg)": -60.5719277865971,
        "RAAN(deg)": 154.96887379535164,
        "Satellite Name": "Starlink Shell 1 698",
        "Satellite Number": 698,
        "Semi-Major Axis(m)": 6931778.249405717,
        "Time(s)": 600
    },
    {
        "Altitude(m)": 568134.8137233566,
        "Argument of Periapsis(deg)": 0.021263287250185448,
        "Eccentricity": 0.0,
        "Inclination(deg)": 53.0,
        "Latitude(deg)": -43.910096886733726,
        "Longitude(deg)": 6.275961825795941,
        "Mean Anomaly(deg)": -59.94509658304043,
        "RAAN(deg)": 154.96835502527415,
        "Satellite Name": "Starlink Shell 1 698",
        "Satellite Number": 698,
        "Semi-Major Axis(m)": 6931778.249405717,
        "Time(s)": 610
    },
    {
        "Altitude(m)": 567991.1102728732,
        "Argument of Periapsis(deg)": 0.021611865729696686,
        "Eccentricity": 0.0,
        "Inclination(deg)": 53.0,
        "Latitude(deg)": -43.561521687665795,
        "Longitude(deg)": 6.9516368574580625,
        "Mean Anomaly(deg)": -59.318265379483634,
        "RAAN(deg)": 154.9678362551967,
        "Satellite Name": "Starlink Shell 1 698",
        "Satellite Number": 698,
        "Semi-Major Axis(m)": 6931778.249405717,
        "Time(s)": 620
    },
    {
        "Altitude(m)": 567845.4519489517,
        "Argument of Periapsis(deg)": 0.02196044420920792,
        "Eccentricity": 0.0,
        "Inclination(deg)": 53.0,
        "Latitude(deg)": -43.20847443292475,
        "Longitude(deg)": 7.619061197445386,
        "Mean Anomaly(deg)": -58.69143417592692,
        "RAAN(deg)": 154.96731748511922,
        "Satellite Name": "Starlink Shell 1 698",
        "Satellite Number": 698,
        "Semi-Major Axis(m)": 6931778.249405717,
        "Time(s)": 630
    },
    {
        "Altitude(m)": 567697.8959320644,
        "Argument of Periapsis(deg)": 0.02230902268871916,
        "Eccentricity": 0.0,
        "Inclination(deg)": 53.0,
        "Latitude(deg)": -42.85105885273326,
        "Longitude(deg)": 8.278329304412098,
        "Mean Anomaly(deg)": -58.064602972370245,
        "RAAN(deg)": 154.96679871504173,
        "Satellite Name": "Starlink Shell 1 698",
        "Satellite Number": 698,
        "Semi-Major Axis(m)": 6931778.249405717,
        "Time(s)": 640
    },
    {
        "Altitude(m)": 567548.5001010405,
        "Argument of Periapsis(deg)": 0.022657601168230398,
        "Eccentricity": 0.0,
        "Inclination(deg)": 53.0,
        "Latitude(deg)": -42.48937690396177,
        "Longitude(deg)": 8.929538912719087,
        "Mean Anomaly(deg)": -57.43777176881349,
        "RAAN(deg)": 154.96627994496427,
        "Satellite Name": "Starlink Shell 1 698",
        "Satellite Number": 698,
        "Semi-Major Axis(m)": 6931778.249405717,
        "Time(s)": 650
    },
    {
        "Altitude(m)": 567397.3230075518,
        "Argument of Periapsis(deg)": 0.023006179647741636,
        "Eccentricity": 0.0,
        "Inclination(deg)": 53.0,
        "Latitude(deg)": -42.123528747801444,
        "Longitude(deg)": 9.572791159547942,
        "Mean Anomaly(deg)": -56.81094056525685,
        "RAAN(deg)": 154.9657611748868,
        "Satellite Name": "Starlink Shell 1 698",
        "Satellite Number": 698,
        "Semi-Major Axis(m)": 6931778.249405717,
        "Time(s)": 660
    },
    {
        "Altitude(m)": 567244.4238502578,
        "Argument of Periapsis(deg)": 0.023354758127252868,
        "Eccentricity": 0.0,
        "Inclination(deg)": 53.0,
        "Latitude(deg)": -41.75361273300019,
        "Longitude(deg)": 10.208190730303926,
        "Mean Anomaly(deg)": -56.184109361700074,
        "RAAN(deg)": 154.96524240480932,
        "Satellite Name": "Starlink Shell 1 698",
        "Satellite Number": 698,
        "Semi-Major Axis(m)": 6931778.249405717,
        "Time(s)": 670
    },
    {
        "Altitude(m)": 567089.8624486673,
        "Argument of Periapsis(deg)": 0.023703336606764106,
        "Eccentricity": 0.0,
        "Inclination(deg)": 53.0,
        "Latitude(deg)": -41.37972538427684,
        "Longitude(deg)": 10.83584450936855,
        "Mean Anomaly(deg)": -55.55727815814331,
        "RAAN(deg)": 154.96472363473185,
        "Satellite Name": "Starlink Shell 1 698",
        "Satellite Number": 698,
        "Semi-Major Axis(m)": 6931778.249405717,
        "Time(s)": 680
    },
    {
        "Altitude(m)": 566933.6992167234,
        "Argument of Periapsis(deg)": 0.024051915086275345,
        "Eccentricity": 0.0,
        "Inclination(deg)": 53.0,
        "Latitude(deg)": -41.0019613955294,
        "Longitude(deg)": 11.455861761786979,
        "Mean Anomaly(deg)": -54.930446954586664,
        "RAAN(deg)": 154.9642048646544,
        "Satellite Name": "Starlink Shell 1 698",
        "Satellite Number": 698,
        "Semi-Major Axis(m)": 6931778.249405717,
        "Time(s)": 690
    },
    {
        "Altitude(m)": 566775.9951360703,
        "Argument of Periapsis(deg)": 0.024400493565786583,
        "Eccentricity": 0.0,
        "Inclination(deg)": 53.0,
        "Latitude(deg)": -40.62041362747569,
        "Longitude(deg)": 12.068354332763978,
        "Mean Anomaly(deg)": -54.30361575102989,
        "RAAN(deg)": 154.9636860945769,
        "Satellite Name": "Starlink Shell 1 698",
        "Satellite Number": 698,
        "Semi-Major Axis(m)": 6931778.249405717,
        "Time(s)": 700
    },
    {
        "Altitude(m)": 566616.8117290804,
        "Argument of Periapsis(deg)": 0.024749072045297815,
        "Eccentricity": 0.0,
        "Inclination(deg)": 53.0,
        "Latitude(deg)": -40.23517310937934,
        "Longitude(deg)": 12.673435351767248,
        "Mean Anomaly(deg)": -53.67678454747324,
        "RAAN(deg)": 154.96316732449944,
        "Satellite Name": "Starlink Shell 1 698",
        "Satellite Number": 698,
        "Semi-Major Axis(m)": 6931778.249405717,
        "Time(s)": 710
    },
    {
        "Altitude(m)": 566456.2110316206,
        "Argument of Periapsis(deg)": 0.025097650524809053,
        "Eccentricity": 0.0,
        "Inclination(deg)": 53.0,
        "Latitude(deg)": -39.84632904451706,
        "Longitude(deg)": 13.271219466596545,
        "Mean Anomaly(deg)": -53.049953343916485,
        "RAAN(deg)": 154.96264855442197,
        "Satellite Name": "Starlink Shell 1 698",
        "Satellite Number": 698,
        "Semi-Major Axis(m)": 6931778.249405717,
        "Time(s)": 720
    },
    {
        "Altitude(m)": 566294.2555655538,
        "Argument of Periapsis(deg)": 0.02544622900432029,
        "Eccentricity": 0.0,
        "Inclination(deg)": 53.0,
        "Latitude(deg)": -39.45396881907126,
        "Longitude(deg)": 13.86182309409593,
        "Mean Anomaly(deg)": -52.423122140359816,
        "RAAN(deg)": 154.96212978434448,
        "Satellite Name": "Starlink Shell 1 698",
        "Satellite Number": 698,
        "Semi-Major Axis(m)": 6931778.249405717,
        "Time(s)": 730
    },
    {
        "Altitude(m)": 566131.0083110462,
        "Argument of Periapsis(deg)": 0.02579480748383153,
        "Eccentricity": 0.0,
        "Inclination(deg)": 53.0,
        "Latitude(deg)": -39.05817801414243,
        "Longitude(deg)": 14.445363174150865,
        "Mean Anomaly(deg)": -51.79629093680317,
        "RAAN(deg)": 154.96161101426702,
        "Satellite Name": "Starlink Shell 1 698",
        "Satellite Number": 698,
        "Semi-Major Axis(m)": 6931778.249405717,
        "Time(s)": 740
    },
    {
        "Altitude(m)": 565966.5326786181,
        "Argument of Periapsis(deg)": 0.026143385963342765,
        "Eccentricity": 0.0,
        "Inclination(deg)": 53.0,
        "Latitude(deg)": -38.65904042058709,
        "Longitude(deg)": 15.021957452188088,
        "Mean Anomaly(deg)": -51.169459733246306,
        "RAAN(deg)": 154.96109224418956,
        "Satellite Name": "Starlink Shell 1 698",
        "Satellite Number": 698,
        "Semi-Major Axis(m)": 6931778.249405717,
        "Time(s)": 750
    }
]